{
  "type": "FeatureCollection",
  "features": [
    {
      "type": "Feature",
      "properties": {
        "norad_id": 36437,
        "name": "COSMOS 2251 DEB",
        "group": "cosmos-2251-debris",
        "lat": 64.08706464026704,
        "lon": 88.63300968376124,
        "alt_km": 666.6581941890654,
        "timestamp": "2025-12-03T08:58:46.400245+00:00",
        "meta_object_name": "COSMOS 2251 DEB",
        "meta_object_id": "1993-036BAL",
        "meta_epoch": "2025-12-02T22:52:02.631072",
        "meta_mean_motion": 14.70397135,
        "meta_eccentricity": 0.0023181,
        "meta_inclination": 73.9435,
        "meta_ra_of_asc_node": 53.1,
        "meta_arg_of_pericenter": 284.4468,
        "meta_mean_anomaly": 75.413,
        "meta_ephemeris_type": 0,
        "meta_classification_type": "U",
        "meta_norad_cat_id": 36437,
        "meta_element_set_no": 999,
        "meta_rev_at_epoch": 65907,
        "meta_bstar": 0.0020593,
        "meta_mean_motion_dot": 0.00012505,
        "meta_mean_motion_ddot": 0,
        "tle_line1": "1 36437U 93036BAL 25336.95280823  .00012505  00000+0  20593-2 0  9993",
        "tle_line2": "2 36437  73.9435  53.1000 0023181 284.4468  75.4130 14.70397135659073"
      },
      "geometry": {
        "type": "Point",
        "coordinates": [
          88.63300968376124,
          64.08706464026704
        ]
      }
    },
    {
      "type": "Feature",
      "properties": {
        "norad_id": 36439,
        "name": "COSMOS 2251 DEB",
        "group": "cosmos-2251-debris",
        "lat": 4.037148957487117,
        "lon": -129.49850470051365,
        "alt_km": 1355.3187782384994,
        "timestamp": "2025-12-03T08:58:46.400255+00:00",
        "meta_object_name": "COSMOS 2251 DEB",
        "meta_object_id": "1993-036BAN",
        "meta_epoch": "2025-11-28T12:20:46.608576",
        "meta_mean_motion": 13.47759109,
        "meta_eccentricity": 0.04273078,
        "meta_inclination": 73.9677,
        "meta_ra_of_asc_node": 59.4166,
        "meta_arg_of_pericenter": 34.2696,
        "meta_mean_anomaly": 328.5204,
        "meta_ephemeris_type": 0,
        "meta_classification_type": "U",
        "meta_norad_cat_id": 36439,
        "meta_element_set_no": 999,
        "meta_rev_at_epoch": 58421,
        "meta_bstar": 0.00064226543,
        "meta_mean_motion_dot": 6.71e-06,
        "meta_mean_motion_ddot": 0,
        "tle_line1": "1 36439U 93036BAN 25332.51442834  .00000671  00000+0  64227-3 0  9999",
        "tle_line2": "2 36439  73.9677  59.4166 0427307  34.2696 328.5204 13.47759109584210"
      },
      "geometry": {
        "type": "Point",
        "coordinates": [
          -129.49850470051365,
          4.037148957487117
        ]
      }
    },
    {
      "type": "Feature",
      "properties": {
        "norad_id": 36441,
        "name": "COSMOS 2251 DEB",
        "group": "cosmos-2251-debris",
        "lat": 30.222933477173342,
        "lon": 18.957715073055187,
        "alt_km": 529.6229175340468,
        "timestamp": "2025-12-03T08:58:46.400265+00:00",
        "meta_object_name": "COSMOS 2251 DEB",
        "meta_object_id": "1993-036BAQ",
        "meta_epoch": "2025-12-01T10:37:17.028480",
        "meta_mean_motion": 15.06528579,
        "meta_eccentricity": 0.01088896,
        "meta_inclination": 73.8359,
        "meta_ra_of_asc_node": 13.2432,
        "meta_arg_of_pericenter": 115.0998,
        "meta_mean_anomaly": 246.1538,
        "meta_ephemeris_type": 0,
        "meta_classification_type": "U",
        "meta_norad_cat_id": 36441,
        "meta_element_set_no": 999,
        "meta_rev_at_epoch": 86795,
        "meta_bstar": 0.00050507629,
        "meta_mean_motion_dot": 8.513e-05,
        "meta_mean_motion_ddot": 0,
        "tle_line1": "1 36441U 93036BAQ 25335.44255820  .00008513  00000+0  50508-3 0  9994",
        "tle_line2": "2 36441  73.8359  13.2432 0108889 115.0998 246.1538 15.06528579867959"
      },
      "geometry": {
        "type": "Point",
        "coordinates": [
          18.957715073055187,
          30.222933477173342
        ]
      }
    },
    {
      "type": "Feature",
      "properties": {
        "norad_id": 36442,
        "name": "COSMOS 2251 DEB",
        "group": "cosmos-2251-debris",
        "lat": -14.085010053050206,
        "lon": -116.63363659644138,
        "alt_km": 496.5636933947044,
        "timestamp": "2025-12-03T08:58:46.400275+00:00",
        "meta_object_name": "COSMOS 2251 DEB",
        "meta_object_id": "1993-036BAR",
        "meta_epoch": "2025-11-30T23:26:58.990560",
        "meta_mean_motion": 15.24721511,
        "meta_eccentricity": 0.00074124,
        "meta_inclination": 73.9503,
        "meta_ra_of_asc_node": 64.3117,
        "meta_arg_of_pericenter": 319.957,
        "meta_mean_anomaly": 40.1082,
        "meta_ephemeris_type": 0,
        "meta_classification_type": "U",
        "meta_norad_cat_id": 36442,
        "meta_element_set_no": 999,
        "meta_rev_at_epoch": 85736,
        "meta_bstar": 0.0052461948,
        "meta_mean_motion_dot": 0.00132297,
        "meta_mean_motion_ddot": 0,
        "tle_line1": "1 36442U 93036BAR 25334.97707165  .00132297  00000+0  52462-2 0  9993",
        "tle_line2": "2 36442  73.9503  64.3117 0007412 319.9570  40.1082 15.24721511857361"
      },
      "geometry": {
        "type": "Point",
        "coordinates": [
          -116.63363659644138,
          -14.085010053050206
        ]
      }
    },
    {
      "type": "Feature",
      "properties": {
        "norad_id": 36451,
        "name": "COSMOS 2251 DEB",
        "group": "cosmos-2251-debris",
        "lat": 38.5221158522287,
        "lon": 158.79074751482702,
        "alt_km": 722.1303580877793,
        "timestamp": "2025-12-03T08:58:46.400285+00:00",
        "meta_object_name": "COSMOS 2251 DEB",
        "meta_object_id": "1993-036BBA",
        "meta_epoch": "2025-12-02T18:46:44.967360",
        "meta_mean_motion": 14.18689973,
        "meta_eccentricity": 0.0184611,
        "meta_inclination": 73.9543,
        "meta_ra_of_asc_node": 353.0964,
        "meta_arg_of_pericenter": 179.7047,
        "meta_mean_anomaly": 180.4241,
        "meta_ephemeris_type": 0,
        "meta_classification_type": "U",
        "meta_norad_cat_id": 36451,
        "meta_element_set_no": 999,
        "meta_rev_at_epoch": 84084,
        "meta_bstar": 0.00098989,
        "meta_mean_motion_dot": 2.407e-05,
        "meta_mean_motion_ddot": 0,
        "tle_line1": "1 36451U 93036BBA 25336.78246490  .00002407  00000+0  98989-3 0  9997",
        "tle_line2": "2 36451  73.9543 353.0964 0184611 179.7047 180.4241 14.18689973840848"
      },
      "geometry": {
        "type": "Point",
        "coordinates": [
          158.79074751482702,
          38.5221158522287
        ]
      }
    },
    {
      "type": "Feature",
      "properties": {
        "norad_id": 36453,
        "name": "COSMOS 2251 DEB",
        "group": "cosmos-2251-debris",
        "lat": -24.61222818583184,
        "lon": 162.5769867062093,
        "alt_km": 732.4659156898351,
        "timestamp": "2025-12-03T08:58:46.400295+00:00",
        "meta_object_name": "COSMOS 2251 DEB",
        "meta_object_id": "1993-036BBC",
        "meta_epoch": "2025-12-02T19:56:07.658016",
        "meta_mean_motion": 14.52492753,
        "meta_eccentricity": 0.0070257,
        "meta_inclination": 73.9227,
        "meta_ra_of_asc_node": 171.2001,
        "meta_arg_of_pericenter": 77.257,
        "meta_mean_anomaly": 297.1324,
        "meta_ephemeris_type": 0,
        "meta_classification_type": "U",
        "meta_norad_cat_id": 36453,
        "meta_element_set_no": 999,
        "meta_rev_at_epoch": 84324,
        "meta_bstar": 0.0011312,
        "meta_mean_motion_dot": 4.743e-05,
        "meta_mean_motion_ddot": 0,
        "tle_line1": "1 36453U 93036BBC 25336.83064419  .00004743  00000+0  11312-2 0  9993",
        "tle_line2": "2 36453  73.9227 171.2001 0070257  77.2570 297.1324 14.52492753843245"
      },
      "geometry": {
        "type": "Point",
        "coordinates": [
          162.5769867062093,
          -24.61222818583184
        ]
      }
    },
    {
      "type": "Feature",
      "properties": {
        "norad_id": 36459,
        "name": "COSMOS 2251 DEB",
        "group": "cosmos-2251-debris",
        "lat": 51.84281826579532,
        "lon": 38.06693143215611,
        "alt_km": 757.5515856932907,
        "timestamp": "2025-12-03T08:58:46.400305+00:00",
        "meta_object_name": "COSMOS 2251 DEB",
        "meta_object_id": "1993-036BBJ",
        "meta_epoch": "2025-11-27T21:25:14.011392",
        "meta_mean_motion": 14.2626117,
        "meta_eccentricity": 0.0114133,
        "meta_inclination": 74.0487,
        "meta_ra_of_asc_node": 26.6161,
        "meta_arg_of_pericenter": 126.4072,
        "meta_mean_anomaly": 234.7668,
        "meta_ephemeris_type": 0,
        "meta_classification_type": "U",
        "meta_norad_cat_id": 36459,
        "meta_element_set_no": 999,
        "meta_rev_at_epoch": 7670,
        "meta_bstar": 0.0017749,
        "meta_mean_motion_dot": 4.537e-05,
        "meta_mean_motion_ddot": 0,
        "tle_line1": "1 36459U 93036BBJ 25331.89252328  .00004537  00000+0  17749-2 0  9999",
        "tle_line2": "2 36459  74.0487  26.6161 0114133 126.4072 234.7668 14.26261170 76702"
      },
      "geometry": {
        "type": "Point",
        "coordinates": [
          38.06693143215611,
          51.84281826579532
        ]
      }
    }
  ]
}